[{"OBJECT_NAME":"STARLINK-3593","OBJECT_ID":"2022-022AW","EPOCH":"2026-03-09T22:53:38.368320","MEAN_MOTION":15.08834291,"ECCENTRICITY":0.00012848,"INCLINATION":53.2185,"RA_OF_ASC_NODE":358.1555,"ARG_OF_PERICENTER":88.9772,"MEAN_ANOMALY":271.1368,"EPHEMERIS_TYPE":0,"CLASSIFICATION_TYPE":"U","NORAD_CAT_ID":51896,"ELEMENT_SET_NO":999,"REV_AT_EPOCH":22333,"BSTAR":-1.61995e-6,"MEAN_MOTION_DOT":-3.14e-6,"MEAN_MOTION_DDOT":0},{"OBJECT_NAME":"OBJECT BE","OBJECT_ID":"2018-099BE","EPOCH":"2026-03-09T15:10:24.322944","MEAN_MOTION":15.09972337,"ECCENTRICITY":0.0006427,"INCLINATION":97.4031,"RA_OF_ASC_NODE":111.7891,"ARG_OF_PERICENTER":340.4925,"MEAN_ANOMALY":19.6058,"EPHEMERIS_TYPE":0,"CLASSIFICATION_TYPE":"U","NORAD_CAT_ID":43810,"ELEMENT_SET_NO":999,"REV_AT_EPOCH":39698,"BSTAR":0.00027209,"MEAN_MOTION_DOT":4.358e-5,"MEAN_MOTION_DDOT":0}]
